{
  "norad_id": 56035,
  "name": "STARLINK-5792",
  "history": [
    {
      "epoch": "2026-03-28T20:00:01.999872Z",
      "apogee_km": 486.5538090305272,
      "perigee_km": 484.60231756373105,
      "latitude_deg": 40.948937752988904,
      "longitude_deg": -77.16721543365152,
      "height_km": 489.13630442537533,
      "semi_major_axis_km": 6863.715063297129,
      "eccentricity": 0.00014216,
      "inclination_deg": 42.9992,
      "raan_deg": 296.8191,
      "arg_perigee_deg": 262.1828,
      "mean_anomaly_deg": 204.4798,
      "mean_motion_rev_day": 15.26735812
    },
    {
      "epoch": "2026-03-29T00:00:01.999296Z",
      "apogee_km": 486.6480411797538,
      "perigee_km": 484.6602872585963,
      "latitude_deg": -34.69815466386847,
      "longitude_deg": 61.862078107060675,
      "height_km": 494.7565912787974,
      "semi_major_axis_km": 6863.791164219175,
      "eccentricity": 0.0001448,
      "inclination_deg": 42.9995,
      "raan_deg": 295.8789,
      "arg_perigee_deg": 265.1294,
      "mean_anomaly_deg": 38.6586,
      "mean_motion_rev_day": 15.26710421
    },
    {
      "epoch": "2026-03-30T06:04:42.595392Z",
      "apogee_km": 486.5211408701598,
      "perigee_km": 484.57185475678034,
      "latitude_deg": 5.1975953310739454e-05,
      "longitude_deg": 9.982414442164217,
      "height_km": 485.41206430314537,
      "semi_major_axis_km": 6863.683497813469,
      "eccentricity": 0.000142,
      "inclination_deg": 42.9988,
      "raan_deg": 288.8075,
      "arg_perigee_deg": 264.7653,
      "mean_anomaly_deg": 95.3037,
      "mean_motion_rev_day": 15.26746344
    },
    {
      "epoch": "2026-03-30T06:04:42.596256Z",
      "apogee_km": 486.5210035964892,
      "perigee_km": 484.57199203045,
      "latitude_deg": 5.041034827676467e-05,
      "longitude_deg": 9.982409162605398,
      "height_km": 485.41205178035585,
      "semi_major_axis_km": 6863.683497813469,
      "eccentricity": 0.00014198,
      "inclination_deg": 42.9988,
      "raan_deg": 288.8075,
      "arg_perigee_deg": 264.7653,
      "mean_anomaly_deg": 95.3037,
      "mean_motion_rev_day": 15.26746344
    },
    {
      "epoch": "2026-03-30T20:12:35.413920Z",
      "apogee_km": 486.4660527365022,
      "perigee_km": 484.67695847743107,
      "latitude_deg": 4.1955785677113125e-05,
      "longitude_deg": 154.11107378527146,
      "height_km": 485.417007659061,
      "semi_major_axis_km": 6863.708505606966,
      "eccentricity": 0.00013033,
      "inclination_deg": 42.9998,
      "raan_deg": 285.4866,
      "arg_perigee_deg": 265.5866,
      "mean_anomaly_deg": 94.4837,
      "mean_motion_rev_day": 15.26738
    },
    {
      "epoch": "2026-03-31T19:45:42.196320Z",
      "apogee_km": 486.47405377118866,
      "perigee_km": 484.6085060147134,
      "latitude_deg": -3.851295531070796e-05,
      "longitude_deg": 154.32938780122285,
      "height_km": 485.3072767925077,
      "semi_major_axis_km": 6863.678279892951,
      "eccentricity": 0.0001359,
      "inclination_deg": 42.9998,
      "raan_deg": 279.9505,
      "arg_perigee_deg": 270.6595,
      "mean_anomaly_deg": 89.41,
      "mean_motion_rev_day": 15.26748085
    }
  ]
}